NORAD_CAT_ID,OBJECT_NAME,OBJECT_TYPE,EPOCH,MEAN_MOTION,ECCENTRICITY,INCLINATION,RA_OF_ASC_NODE,ARG_OF_PERICENTER,MEAN_ANOMALY,BSTAR,MEAN_MOTION_DOT,MEAN_MOTION_DDOT,TLE_LINE0,TLE_LINE1,TLE_LINE2,SEMIMAJOR_AXIS,PERIOD,APOGEE,PERIGEE,DECAYED
52551.0,STARLINK-3969,PAYLOAD,2022-07-20 06:00:00,15.08847786,0.0001597,53.2143,332.7025,56.9154,59.4115,0.0013716,0.00021613,0.0,0 STARLINK-3969,1 52551U 22051U   22201.25001157  .00021613  00000-0  13716-2 0  9999,2 52551  53.2143 332.7025 0001597  56.9154  59.4115 15.08847786 10967,6917.857,95.437,540.826,538.617,0.0
52551.0,STARLINK-3969,PAYLOAD,2022-07-20 14:00:01,15.08861189,0.0001793,53.2152,331.2092,55.3718,72.5246,-0.0025688,-0.00040963,0.0,0 STARLINK-3969,1 52551U 22051U   22201.58334491 -.00040963  00000-0 -25688-2 0  9997,2 52551  53.2152 331.2092 0001793  55.3718  72.5246 15.08861189  1304,6917.816,95.436,540.9209999999998,538.44,0.0
52551.0,STARLINK-3969,PAYLOAD,2022-07-20 22:00:01,15.08824657,0.000175,53.2143,329.7111,49.739,89.8082,-7.084e-06,-4.01e-06,0.0,0 STARLINK-3969,1 52551U 22051U   22201.91668981 -.00000401  00000-0 -70840-5 0  9994,2 52551  53.2143 329.7111 0001750  49.7390  89.8082 15.08824657  1302,6917.927,95.439,541.003,538.582,0.0
52551.0,STARLINK-3969,PAYLOAD,2022-07-21 08:00:01,15.08823345,0.0001625,53.2147,327.839,58.1518,185.7997,0.0017460999999999,0.00027598,0.0,0 STARLINK-3969,1 52551U 22051U   22202.33334491  .00027598  00000-0  17461-2 0  9998,2 52551  53.2147 327.8390 0001625  58.1518 185.7997 15.08823345 11137,6917.931,95.439,540.92,538.672,0.0
52551.0,STARLINK-3969,PAYLOAD,2022-07-21 14:00:01,15.08846511,0.0001709,53.2146,326.718,52.2667,110.4327,-0.003659,-0.00058063,0.0,0 STARLINK-3969,1 52551U 22051U   22202.58335648 -.00058063  00000-0 -36590-2 0  9997,2 52551  53.2146 326.7180 0001709  52.2667 110.4327 15.08846511  1304,6917.86,95.437,540.908,538.543,0.0
52551.0,STARLINK-3969,PAYLOAD,2022-07-21 22:00:00,15.08822299,0.0001696999999999,53.2146,325.2216,47.6196,126.5941,-4.5399e-05,-1.01e-05,0.0,0 STARLINK-3969,1 52551U 22051U   22202.91667824 -.00001010  00000-0 -45399-4 0  9997,2 52551  53.2146 325.2216 0001697  47.6196 126.5941 15.08822299  1306,6917.934,95.439,540.9730000000002,538.626,0.0
52551.0,STARLINK-3969,PAYLOAD,2022-07-22 06:00:00,15.08810244,0.000155,53.2149,323.7236,54.1805,131.6153,0.0030755,0.00048959,0.0,0 STARLINK-3969,1 52551U 22051U   22203.25001157  .00048959  00000-0  30755-2 0  9995,2 52551  53.2149 323.7236 0001550  54.1805 131.6153 15.08810244  1301,6917.971,95.439,540.909,538.764,0.0
52551.0,STARLINK-3969,PAYLOAD,2022-07-22 12:00:00,15.08852672,0.0001655,53.2151,322.6024,51.7861,52.6885,-0.0011362,-0.00018332,0.0,0 STARLINK-3969,1 52551U 22051U   22203.50001157 -.00018332  00000-0 -11362-2 0  9990,2 52551  53.2151 322.6024 0001655  51.7861  52.6885 15.08852672 11304,6917.842,95.437,540.852,538.562,0.0
52551.0,STARLINK-3969,PAYLOAD,2022-07-22 22:00:00,15.08869849,0.0001679,53.2149,320.7321,46.8533,162.1192,-0.001807,-0.00028955,0.0,0 STARLINK-3969,1 52551U 22051U   22203.91667824 -.00028955  00000-0 -18070-2 0  9999,2 52551  53.2149 320.7321 0001679  46.8533 162.1192 15.08869849  1308,6917.7890000000025,95.436,540.816,538.493,0.0
52551.0,STARLINK-3969,PAYLOAD,2022-07-23 14:00:01,15.08849154,0.0001636,53.2152,317.7393,48.0331,184.2048,-0.002997,-0.00047682,0.0,0 STARLINK-3969,1 52551U 22051U   22204.58335648 -.00047682  00000-0 -29970-2 0  9998,2 52551  53.2152 317.7393 0001636  48.0331 184.2048 15.08849154  1302,6917.852,95.437,540.849,538.586,0.0
52551.0,STARLINK-3969,PAYLOAD,2022-07-23 22:00:00,15.08836388,0.0001647,53.215,316.2425,48.0239,195.7422,-0.0011202,-0.0001807,0.0,0 STARLINK-3969,1 52551U 22051U   22204.91667824 -.00018070  00000-0 -11202-2 0  9997,2 52551  53.2150 316.2425 0001647  48.0239 195.7422 15.08836388  1307,6917.891,95.438,540.896,538.617,0.0
52551.0,STARLINK-3969,PAYLOAD,2022-07-24 14:00:01,15.08832407,0.0001656,53.2151,313.2502,50.0482,216.8747,-0.00023334,-3.999e-05,0.0,0 STARLINK-3969,1 52551U 22051U   22205.58334491 -.00003999  00000-0 -23334-3 0  9996,2 52551  53.2151 313.2502 0001656  50.0482 216.8747 15.08832407  1307,6917.904,95.438,540.914,538.623,0.0
52551.0,STARLINK-3969,PAYLOAD,2022-07-24 22:00:00,15.08854363,0.0001602,53.2148,311.7533,49.0309,229.4726,-0.0017502,-0.00028046,0.0,0 STARLINK-3969,1 52551U 22051U   22205.91667824 -.00028046  00000-0 -17502-2 0  9991,2 52551  53.2148 311.7533 0001602  49.0309 229.4726 15.08854363  1309,6917.8359999999975,95.437,540.81,538.5930000000002,0.0
52551.0,STARLINK-3969,PAYLOAD,2022-07-25 14:00:01,15.08850284,0.0001628,53.2148,308.7611,50.0739,251.63,-0.00071329,-0.00011625,0.0,0 STARLINK-3969,1 52551U 22051U   22206.58334491 -.00011625  00000-0 -71329-3 0  9999,2 52551  53.2148 308.7611 0001628  50.0739 251.6300 15.08850284  1302,6917.849,95.437,540.84,538.5880000000002,0.0
52551.0,STARLINK-3969,PAYLOAD,2022-07-25 22:00:00,15.08860476,0.0001526,53.2152,307.2641,47.6624,265.6422,-0.0038896,-0.00061696,0.0,0 STARLINK-3969,1 52551U 22051U   22206.91667824 -.00061696  00000-0 -38896-2 0  9999,2 52551  53.2152 307.2641 0001526  47.6624 265.6422 15.08860476  1300,6917.818,95.436,540.738,538.627,0.0
52551.0,STARLINK-3969,PAYLOAD,2022-07-26 14:00:01,15.08831453,0.0001595999999999,53.2165,304.2722,47.5176,288.9659,0.00020953,3.047e-05,0.0,0 STARLINK-3969,1 52551U 22051U   22207.58334491  .00003047  00000-0  20953-3 0  9994,2 52551  53.2165 304.2722 0001596  47.5176 288.9659 15.08831453  1302,6917.906999999997,95.438,540.876,538.6669999999998,0.0
52551.0,STARLINK-3969,PAYLOAD,2022-07-26 22:00:00,15.08848746,0.0001521999999999,53.2161,302.775,46.9585,301.0984,-0.002411,-0.00038464,0.0,0 STARLINK-3969,1 52551U 22051U   22207.91667824 -.00038464  00000-0 -24110-2 0  9991,2 52551  53.2161 302.7750 0001522  46.9585 301.0984 15.08848746  1309,6917.854,95.437,540.7719999999998,538.6659999999998,0.0
52551.0,STARLINK-3969,PAYLOAD,2022-07-27 06:00:02,15.08833439,0.0001458,53.2163,301.2777,53.7849,305.9345,0.0018065,0.00028574,0.0,0 STARLINK-3969,1 52551U 22051U   22208.25002315  .00028574  00000-0  18065-2 0  9998,2 52551  53.2163 301.2777 0001458  53.7849 305.9345 15.08833439 12029,6917.9,95.438,540.774,538.757,0.0
52551.0,STARLINK-3969,PAYLOAD,2022-07-27 14:00:01,15.0884093,0.0001657,53.2162,299.7833,47.0309,324.2264,0.00040748,6.203e-05,0.0,0 STARLINK-3969,1 52551U 22051U   22208.58334491  .00006203  00000-0  40748-3 0  9996,2 52551  53.2162 299.7833 0001657  47.0309 324.2264 15.08840930  1307,6917.878000000002,95.437,540.889,538.596,0.0
52551.0,STARLINK-3969,PAYLOAD,2022-07-27 22:00:00,15.08867455,0.0001594,53.2161,298.2859,46.5125,336.3414,-0.001975,-0.00031606,0.0,0 STARLINK-3969,1 52551U 22051U   22208.91667824 -.00031606  00000-0 -19750-2 0  9997,2 52551  53.2161 298.2859 0001594  46.5125 336.3414 15.08867455  1300,6917.795999999999,95.436,540.764,538.559,0.0
52551.0,STARLINK-3969,PAYLOAD,2022-07-28 00:00:00,15.08854975,0.0001539,53.2163,297.9115,48.878,66.8839,-0.00057464,-9.426e-05,0.0,0 STARLINK-3969,1 52551U 22051U   22209.00001157 -.00009426  00000-0 -57464-3 0  9999,2 52551  53.2163 297.9115 0001539  48.8780  66.8839 15.08854975 12136,6917.835,95.437,540.764,538.635,0.0
52551.0,STARLINK-3969,PAYLOAD,2022-07-28 14:00:01,15.0882709,0.000182,53.2163,295.2943,48.7244,357.3521,0.00075065,0.00011675,0.0,0 STARLINK-3969,1 52551U 22051U   22209.58334491  .00011675  00000-0  75065-3 0  9996,2 52551  53.2163 295.2943 0001820  48.7244 357.3521 15.08827090  1304,6917.92,95.438,541.044,538.526,0.0
52551.0,STARLINK-3969,PAYLOAD,2022-07-28 22:00:00,15.08854227,0.0001733,53.2163,293.7969,49.0394,8.6199,-0.0017414,-0.00027907,0.0,0 STARLINK-3969,1 52551U 22051U   22209.91667824 -.00027907  00000-0 -17414-2 0  9992,2 52551  53.2163 293.7969 0001733  49.0394   8.6199 15.08854227  1307,6917.837,95.437,540.901,538.503,0.0
52551.0,STARLINK-3969,PAYLOAD,2022-07-29 06:00:00,15.08844459,0.0001683,53.2165,292.2999,53.8504,15.4051,0.00095073,0.00014877,0.0,0 STARLINK-3969,1 52551U 22051U   22210.25001157  .00014877  00000-0  95073-3 0  9990,2 52551  53.2165 292.2999 0001683  53.8504  15.4051 15.08844459 12329,6917.8669999999975,95.437,540.896,538.567,0.0
52551.0,STARLINK-3969,PAYLOAD,2022-07-29 14:00:01,15.08849707,0.0001829,53.2164,290.8053,47.0815,33.7802,-0.0017625,-0.00028237,0.0,0 STARLINK-3969,1 52551U 22051U   22210.58334491 -.00028237  00000-0 -17625-2 0  9999,2 52551  53.2164 290.8053 0001829  47.0815  33.7802 15.08849707  1309,6917.851,95.437,540.981,538.45,0.0
52551.0,STARLINK-3969,PAYLOAD,2022-07-29 22:00:00,15.08835594,0.0001665,53.2164,289.3078,46.7332,45.7252,-0.0016269,-0.00026084,0.0,0 STARLINK-3969,1 52551U 22051U   22210.91667824 -.00026084  00000-0 -16269-2 0  9996,2 52551  53.2164 289.3078 0001665  46.7332  45.7252 15.08835594  1308,6917.894,95.438,540.911,538.607,0.0
52551.0,STARLINK-3969,PAYLOAD,2022-07-30 14:00:01,15.08817079,0.0001791,53.2164,286.3164,45.0422,70.5811,0.0014003,0.00022054,0.0,0 STARLINK-3969,1 52551U 22051U   22211.58334491  .00022054  00000-0  14003-2 0  9996,2 52551  53.2164 286.3164 0001791  45.0422  70.5811 15.08817079 12524,6917.95,95.439,541.054,538.576,0.0
52551.0,STARLINK-3969,PAYLOAD,2022-07-30 22:00:00,15.08843031,0.0001656,53.2162,284.8188,47.3474,79.8538,-0.0013587999999999,-0.0002185,0.0,0 STARLINK-3969,1 52551U 22051U   22211.91667824 -.00021850  00000-0 -13588-2 0  9994,2 52551  53.2162 284.8188 0001656  47.3474  79.8538 15.08843031  1302,6917.871,95.437,540.882,538.591,0.0
52551.0,STARLINK-3969,PAYLOAD,2022-07-31 14:00:01,15.08821941,0.0001779,53.2161,281.8273,44.6285,105.7597,0.001776,0.00028076,0.0,0 STARLINK-3969,1 52551U 22051U   22212.58334491  .00028076  00000-0  17760-2 0  9990,2 52551  53.2161 281.8273 0001779  44.6285 105.7597 15.08821941 12671,6917.936,95.439,541.031,538.57,0.0
